0 OPS 7684
1 03605U 68112B   13281.48981606  .00000047  00000-0  23245-3 0  2891
2 03605 080.3627 336.0157 0056043 223.9960 199.8230 12.60254520 60551
0 OPS 7684
1 03605U 68112B   13283.79899132  .00000056  00000-0  28225-3 0  2904
2 03605 080.3624 334.1128 0056111 219.1316 236.3321 12.60254438 60841
0 OPS 7684
1 03605U 68112B   13286.09700512  .00000083  00000-0  44130-3 0  2917
2 03605 080.3618 332.2193 0056173 214.2685 222.2262 12.60254728 61131
0 OPS 7684
1 03605U 68112B   13288.15612231  .00000077  00000-0  40469-3 0  2921
2 03605 080.3613 330.5223 0056214 209.9440 204.2335 12.60255103 61394
0 OPS 7684
1 03605U 68112B   13290.30781775  .00000062  00000-0  32004-3 0  2932
2 03605 080.3609 328.7488 0056258 205.4019 246.2861 12.60255620 61666
0 OPS 7684
1 03605U 68112B   13292.44559211  .00000069  00000-0  35724-3 0  2947
2 03605 080.3608 326.9866 0056298 200.8864 225.1871 12.60256083 61937
0 OPS 7684
1 03605U 68112B   13294.53221100  .00000066  00000-0  33961-3 0  2951
2 03605 080.3607 325.2668 0056338 196.4972 331.9843 12.60256270 62195
